{"type": "FeatureCollection", "features": [ {"type": "Feature", "properties": {"norad_id": 35891, "name": "COSMOS 2251 DEB", "group": "cosmos-2251-debris", "lat": 14.969350332935955, "lon": 72.4095057767155, "alt_km": 492.00200593034606, "timestamp": "2025-12-24T18:55:56.468772+00:00", "meta": {"OBJECT_NAME": "COSMOS 2251 DEB", "OBJECT_ID": "1993-036AUE", "EPOCH": "2025-12-23T13:07:46.294176", "MEAN_MOTION": 15.34193649, "ECCENTRICITY": 0.00415965, "INCLINATION": 73.9889, "RA_OF_ASC_NODE": 70.6727, "ARG_OF_PERICENTER": 199.1804, "MEAN_ANOMALY": 160.7838, "EPHEMERIS_TYPE": 0, "CLASSIFICATION_TYPE": "U", "NORAD_CAT_ID": 35891, "ELEMENT_SET_NO": 999, "REV_AT_EPOCH": 67386, "BSTAR": 0.0012658381, "MEAN_MOTION_DOT": 0.00043293, "MEAN_MOTION_DDOT": 0}, "tle": {"line1": "1 35891U 93036AUE 25357.54706359  .00043293  00000+0  12658-2 0  9992", "line2": "2 35891  73.9889  70.6727 0041596 199.1804 160.7838 15.34193649673866"}}, "geometry": {"type": "Point", "coordinates": [72.4095057767155, 14.969350332935955]}}, {"type": "Feature", "properties": {"norad_id": 35895, "name": "COSMOS 2251 DEB", "group": "cosmos-2251-debris", "lat": -2.1007501091802543, "lon": -33.84063472708562, "alt_km": 825.4502975534824, "timestamp": "2025-12-24T18:55:56.468782+00:00", "meta": {"OBJECT_NAME": "COSMOS 2251 DEB", "OBJECT_ID": "1993-036AUJ", "EPOCH": "2025-12-22T15:33:07.695936", "MEAN_MOTION": 14.01570651, "ECCENTRICITY": 0.01984376, "INCLINATION": 74.0474, "RA_OF_ASC_NODE": 330.4733, "ARG_OF_PERICENTER": 66.0465, "MEAN_ANOMALY": 296.1309, "EPHEMERIS_TYPE": 0, "CLASSIFICATION_TYPE": "U", "NORAD_CAT_ID": 35895, "ELEMENT_SET_NO": 999, "REV_AT_EPOCH": 59151, "BSTAR": 0.0014393062, "MEAN_MOTION_DOT": 2.565e-05, "MEAN_MOTION_DDOT": 0}, "tle": {"line1": "1 35895U 93036AUJ 25356.64800574  .00002565  00000+0  14393-2 0  9995", "line2": "2 35895  74.0474 330.4733 0198437  66.0465 296.1309 14.01570651591511"}}, "geometry": {"type": "Point", "coordinates": [-33.84063472708562, -2.1007501091802543]}}, {"type": "Feature", "properties": {"norad_id": 35898, "name": "COSMOS 2251 DEB", "group": "cosmos-2251-debris", "lat": -51.89863730483573, "lon": -108.38161760424784, "alt_km": 606.0602471087786, "timestamp": "2025-12-24T18:55:56.468792+00:00", "meta": {"OBJECT_NAME": "COSMOS 2251 DEB", "OBJECT_ID": "1993-036AUM", "EPOCH": "2025-12-23T01:28:13.609632", "MEAN_MOTION": 14.9486843, "ECCENTRICITY": 0.00792798, "INCLINATION": 73.9918, "RA_OF_ASC_NODE": 276.5869, "ARG_OF_PERICENTER": 57.1802, "MEAN_ANOMALY": 315.6135, "EPHEMERIS_TYPE": 0, "CLASSIFICATION_TYPE": "U", "NORAD_CAT_ID": 35898, "ELEMENT_SET_NO": 999, "REV_AT_EPOCH": 66964, "BSTAR": 0.00085758423, "MEAN_MOTION_DOT": 9.925e-05, "MEAN_MOTION_DDOT": 0}, "tle": {"line1": "1 35898U 93036AUM 25357.06126863  .00009925  00000+0  85758-3 0  9998", "line2": "2 35898  73.9918 276.5869 0079279  57.1802 315.6135 14.94868430669644"}}, "geometry": {"type": "Point", "coordinates": [-108.38161760424784, -51.89863730483573]}}, {"type": "Feature", "properties": {"norad_id": 35901, "name": "COSMOS 2251 DEB", "group": "cosmos-2251-debris", "lat": 34.963993579864294, "lon": 166.48849301523623, "alt_km": 544.6671339551995, "timestamp": "2025-12-24T18:55:56.468803+00:00", "meta": {"OBJECT_NAME": "COSMOS 2251 DEB", "OBJECT_ID": "1993-036AUQ", "EPOCH": "2025-12-21T07:33:55.014048", "MEAN_MOTION": 15.07789315, "ECCENTRICITY": 0.0007598, "INCLINATION": 74.0113, "RA_OF_ASC_NODE": 5.2093, "ARG_OF_PERICENTER": 337.8636, "MEAN_ANOMALY": 36.6976, "EPHEMERIS_TYPE": 0, "CLASSIFICATION_TYPE": "U", "NORAD_CAT_ID": 35901, "ELEMENT_SET_NO": 999, "REV_AT_EPOCH": 86256, "BSTAR": 0.0027352, "MEAN_MOTION_DOT": 0.00042089, "MEAN_MOTION_DDOT": 0}, "tle": {"line1": "1 35901U 93036AUQ 25355.31522007  .00042089  00000+0  27352-2 0  9992", "line2": "2 35901  74.0113   5.2093 0007598 337.8636  36.6976 15.07789315862560"}}, "geometry": {"type": "Point", "coordinates": [166.48849301523623, 34.963993579864294]}}, {"type": "Feature", "properties": {"norad_id": 35902, "name": "COSMOS 2251 DEB", "group": "cosmos-2251-debris", "lat": 5.5791133859836854, "lon": 31.104436879509073, "alt_km": 867.8477093260735, "timestamp": "2025-12-24T18:55:56.468813+00:00", "meta": {"OBJECT_NAME": "COSMOS 2251 DEB", "OBJECT_ID": "1993-036AUR", "EPOCH": "2025-12-22T20:41:03.846048", "MEAN_MOTION": 14.26951694, "ECCENTRICITY": 0.0102351, "INCLINATION": 73.9816, "RA_OF_ASC_NODE": 216.2092, "ARG_OF_PERICENTER": 329.0141, "MEAN_ANOMALY": 30.4992, "EPHEMERIS_TYPE": 0, "CLASSIFICATION_TYPE": "U", "NORAD_CAT_ID": 35902, "ELEMENT_SET_NO": 999, "REV_AT_EPOCH": 61274, "BSTAR": 0.0010058, "MEAN_MOTION_DOT": 2.559e-05, "MEAN_MOTION_DDOT": 0}, "tle": {"line1": "1 35902U 93036AUR 25356.86185007  .00002559  00000+0  10058-2 0  9992", "line2": "2 35902  73.9816 216.2092 0102351 329.0141  30.4992 14.26951694612743"}}, "geometry": {"type": "Point", "coordinates": [31.104436879509073, 5.5791133859836854]}}, {"type": "Feature", "properties": {"norad_id": 35905, "name": "COSMOS 2251 DEB", "group": "cosmos-2251-debris", "lat": 14.884060384966102, "lon": -169.2834646090636, "alt_km": 593.2555795275093, "timestamp": "2025-12-24T18:55:56.468823+00:00", "meta": {"OBJECT_NAME": "COSMOS 2251 DEB", "OBJECT_ID": "1993-036AUU", "EPOCH": "2025-12-20T21:58:14.302848", "MEAN_MOTION": 14.99122069, "ECCENTRICITY": 0.00907118, "INCLINATION": 74.0303, "RA_OF_ASC_NODE": 194.2135, "ARG_OF_PERICENTER": 272.3815, "MEAN_ANOMALY": 86.6988, "EPHEMERIS_TYPE": 0, "CLASSIFICATION_TYPE": "U", "NORAD_CAT_ID": 35905, "ELEMENT_SET_NO": 999, "REV_AT_EPOCH": 88705, "BSTAR": 0.00044734031, "MEAN_MOTION_DOT": 5.886e-05, "MEAN_MOTION_DDOT": 0}, "tle": {"line1": "1 35905U 93036AUU 25354.91544332  .00005886  00000+0  44734-3 0  9994", "line2": "2 35905  74.0303 194.2135 0090711 272.3815  86.6988 14.99122069887058"}}, "geometry": {"type": "Point", "coordinates": [-169.2834646090636, 14.884060384966102]}}, {"type": "Feature", "properties": {"norad_id": 35959, "name": "COSMOS 2251 DEB", "group": "cosmos-2251-debris", "lat": -30.18366465793006, "lon": 119.5938003383069, "alt_km": 797.8471368303153, "timestamp": "2025-12-24T18:55:56.468833+00:00", "meta": {"OBJECT_NAME": "COSMOS 2251 DEB", "OBJECT_ID": "1993-036AUZ", "EPOCH": "2025-12-22T02:19:54.921216", "MEAN_MOTION": 14.34142228, "ECCENTRICITY": 0.00219687, "INCLINATION": 74.0331, "RA_OF_ASC_NODE": 294.9334, "ARG_OF_PERICENTER": 12.848, "MEAN_ANOMALY": 347.3227, "EPHEMERIS_TYPE": 0, "CLASSIFICATION_TYPE": "U", "NORAD_CAT_ID": 35959, "ELEMENT_SET_NO": 999, "REV_AT_EPOCH": 85062, "BSTAR": 0.0001152914, "MEAN_MOTION_DOT": 2.97e-06, "MEAN_MOTION_DDOT": 0}, "tle": {"line1": "1 35959U 93036AUZ 25356.09716344  .00000297  00000+0  11529-3 0  9995", "line2": "2 35959  74.0331 294.9334 0021968  12.8480 347.3227 14.34142228850624"}}, "geometry": {"type": "Point", "coordinates": [119.5938003383069, -30.18366465793006]}}, {"type": "Feature", "properties": {"norad_id": 35961, "name": "COSMOS 2251 DEB", "group": "cosmos-2251-debris", "lat": -22.256521036651307, "lon": 176.211343622385, "alt_km": 980.2741817238621, "timestamp": "2025-12-24T18:55:56.468843+00:00", "meta": {"OBJECT_NAME": "COSMOS 2251 DEB", "OBJECT_ID": "1993-036AVB", "EPOCH": "2025-12-23T19:07:42.767328", "MEAN_MOTION": 14.05444821, "ECCENTRICITY": 0.01917264, "INCLINATION": 73.9256, "RA_OF_ASC_NODE": 184.7319, "ARG_OF_PERICENTER": 115.7574, "MEAN_ANOMALY": 246.3488, "EPHEMERIS_TYPE": 0, "CLASSIFICATION_TYPE": "U", "NORAD_CAT_ID": 35961, "ELEMENT_SET_NO": 999, "REV_AT_EPOCH": 62837, "BSTAR": 0.0013269491, "MEAN_MOTION_DOT": 2.518e-05, "MEAN_MOTION_DDOT": 0}, "tle": {"line1": "1 35961U 93036AVB 25357.79702277  .00002518  00000+0  13269-2 0  9996", "line2": "2 35961  73.9256 184.7319 0191726 115.7574 246.3488 14.05444821628371"}}, "geometry": {"type": "Point", "coordinates": [176.211343622385, -22.256521036651307]}}, {"type": "Feature", "properties": {"norad_id": 35979, "name": "COSMOS 2251 DEB", "group": "cosmos-2251-debris", "lat": -9.994811306947977, "lon": -148.08669874610183, "alt_km": 608.2860545096464, "timestamp": "2025-12-24T18:55:56.468853+00:00", "meta": {"OBJECT_NAME": "COSMOS 2251 DEB", "OBJECT_ID": "1993-036AVV", "EPOCH": "2025-12-22T21:28:01.748352", "MEAN_MOTION": 14.74747539, "ECCENTRICITY": 0.0059307, "INCLINATION": 74.008, "RA_OF_ASC_NODE": 218.5159, "ARG_OF_PERICENTER": 348.3492, "MEAN_ANOMALY": 27.9615, "EPHEMERIS_TYPE": 0, "CLASSIFICATION_TYPE": "U", "NORAD_CAT_ID": 35979, "ELEMENT_SET_NO": 999, "REV_AT_EPOCH": 88783, "BSTAR": 0.00076773, "MEAN_MOTION_DOT": 5.251e-05, "MEAN_MOTION_DDOT": 0}, "tle": {"line1": "1 35979U 93036AVV 25356.89446468  .00005251  00000+0  76773-3 0  9999", "line2": "2 35979  74.0080 218.5159 0059307 348.3492  27.9615 14.74747539887837"}}, "geometry": {"type": "Point", "coordinates": [-148.08669874610183, -9.994811306947977]}}, {"type": "Feature", "properties": {"norad_id": 35980, "name": "COSMOS 2251 DEB", "group": "cosmos-2251-debris", "lat": -68.6271920570874, "lon": 52.03001497628962, "alt_km": 678.3751608488465, "timestamp": "2025-12-24T18:55:56.468863+00:00", "meta": {"OBJECT_NAME": "COSMOS 2251 DEB", "OBJECT_ID": "1993-036AVW", "EPOCH": "2025-12-21T00:47:41.997408", "MEAN_MOTION": 14.59403711, "ECCENTRICITY": 0.00538655, "INCLINATION": 73.9127, "RA_OF_ASC_NODE": 106.7527, "ARG_OF_PERICENTER": 240.1949, "MEAN_ANOMALY": 119.3854, "EPHEMERIS_TYPE": 0, "CLASSIFICATION_TYPE": "U", "NORAD_CAT_ID": 35980, "ELEMENT_SET_NO": 999, "REV_AT_EPOCH": 61607, "BSTAR": 0.00094415254, "MEAN_MOTION_DOT": 4.534e-05, "MEAN_MOTION_DDOT": 0}, "tle": {"line1": "1 35980U 93036AVW 25355.03312497  .00004534  00000+0  94415-3 0  9996", "line2": "2 35980  73.9127 106.7527 0053865 240.1949 119.3854 14.59403711616076"}}, "geometry": {"type": "Point", "coordinates": [52.03001497628962, -68.6271920570874]}}]}